OBJECT_NAME,OBJECT_ID,EPOCH,MEAN_MOTION,ECCENTRICITY,INCLINATION,RA_OF_ASC_NODE,ARG_OF_PERICENTER,MEAN_ANOMALY,EPHEMERIS_TYPE,CLASSIFICATION_TYPE,NORAD_CAT_ID,ELEMENT_SET_NO,REV_AT_EPOCH,BSTAR,MEAN_MOTION_DOT,MEAN_MOTION_DDOT
COSMOS 2251 DEB,1993-036JU,2025-04-02T09:31:44.299200,15.17458411,.0022013,74.0040,72.7816,242.1644,240.7838,0,U,34057,999,85490,.10161E-1,.210625E-2,0
COSMOS 2251 DEB,1993-036JV,2025-04-02T02:56:57.414336,13.55759313,.0378111,73.9342,230.7208,274.2048,262.7509,0,U,34058,999,79691,.55408E-3,.587E-5,0
COSMOS 2251 DEB,1993-036JW,2025-04-02T15:00:58.682880,14.50966653,.0019127,74.0391,304.8600,90.7839,331.0300,0,U,34059,999,84771,.14526E-2,.5732E-4,0
COSMOS 2251 DEB,1993-036JY,2025-04-02T13:31:22.007424,14.39712290,.002084,74.0421,12.9599,160.2654,13.0984,0,U,34061,999,84521,.60778E-3,.1882E-4,0
COSMOS 2251 DEB,1993-036JZ,2025-04-02T14:47:38.854752,14.70589344,.0088339,74.0306,274.1547,60.3593,9.3046,0,U,34062,999,84851,.34291E-2,.22183E-3,0
COSMOS 2251 DEB,1993-036KB,2025-04-02T06:06:33.069888,14.41311958,.0022736,74.0354,22.5714,159.6142,352.7079,0,U,34064,999,84474,.99106E-3,.3191E-4,0
COSMOS 2251 DEB,1993-036KC,2025-04-02T12:56:56.866848,14.37748877,.0016798,74.0384,6.2272,174.3357,358.8995,0,U,34065,999,84551,.30444E-3,.891E-5,0
COSMOS 2251 DEB,1993-036KH,2025-04-02T12:12:42.725376,14.69322220,.002564,74.0038,252.3471,69.2485,356.8981,0,U,34070,999,84868,.46271E-2,.27545E-3,0
COSMOS 2251 DEB,1993-036KK,2025-04-02T05:42:54.690336,14.51452924,.0051842,74.0607,163.9544,233.3557,182.7729,0,U,34114,999,84103,.3439E-2,.13975E-3,0
COSMOS 2251 DEB,1993-036KL,2025-04-02T04:58:29.873280,14.74685106,.0035005,74.0115,21.7497,265.1134,94.6042,0,U,34115,999,85654,.20867E-2,.1407E-3,0
COSMOS 2251 DEB,1993-036KM,2025-04-02T08:26:38.023008,14.51043272,.0012431,74.0416,301.8295,88.6492,84.3370,0,U,34116,999,84794,.12488E-2,.4925E-4,0
COSMOS 2251 DEB,1993-036KN,2025-04-02T08:21:34.420320,14.38785497,.0060342,74.0381,93.3256,235.1754,124.3715,0,U,34117,999,84463,.10659E-2,.332E-4,0
COSMOS 2251 DEB,1993-036KP,2025-04-02T13:02:15.252576,14.83174806,.0078515,73.9579,38.9617,286.3544,194.5738,0,U,34118,999,85395,.39947E-2,.34555E-3,0
COSMOS 2251 DEB,1993-036KR,2025-04-02T15:12:17.246016,13.98305523,.0183942,73.9910,296.2487,179.5452,239.6372,0,U,34120,999,82428,.59297E-3,.954E-5,0
COSMOS 2251 DEB,1993-036KS,2025-04-02T11:40:10.879392,13.90662987,.023935,73.9939,172.3527,72.1427,302.3157,0,U,34121,999,81589,.166E-2,.2589E-4,0
COSMOS 2251 DEB,1993-036KT,2025-04-02T11:43:41.044800,14.61154749,.0088933,74.0378,246.2830,207.9965,209.3216,0,U,34122,999,84966,.32555E-2,.16958E-3,0
COSMOS 2251 DEB,1993-036KX,2025-04-02T04:51:23.459040,15.87812723,.00152,73.9569,124.0592,312.3357,47.6587,0,U,34126,999,86441,.84284E-2,.220164E-1,.27252E-2
COSMOS 2251 DEB,1993-036KY,2025-04-02T13:53:22.149312,14.28521562,.011557,74.1792,142.0263,50.1513,69.0801,0,U,34127,999,83138,.23271E-2,.6246E-4,0
COSMOS 2251 DEB,1993-036KZ,2025-04-02T06:27:12.661920,14.86353111,.0045276,74.0023,89.1934,271.6655,99.6327,0,U,34128,999,85370,.43543E-2,.39294E-3,0
COSMOS 2251 DEB,1993-036LA,2025-04-02T10:02:59.764128,14.70719631,.0040405,74.0355,115.0575,267.4713,92.1832,0,U,34129,999,57553,.20432E-2,.12605E-3,0
COSMOS 2251 DEB,1993-036LH,2025-04-02T06:59:19.830336,14.77701579,.0091226,74.0211,183.4209,9.9144,49.6877,0,U,34136,999,86249,.70152E-3,.5355E-4,0
COSMOS 2251 DEB,1993-036LL,2025-04-02T05:46:23.049984,14.54830405,.0047955,74.0348,17.3888,157.9498,354.2467,0,U,34139,999,84443,.27638E-2,.12036E-3,0
COSMOS 2251 DEB,1993-036LN,2025-04-01T13:35:19.329216,14.45614993,.005864,74.0104,146.7012,294.8575,188.5432,0,U,34141,999,84002,.18579E-2,.6685E-4,0
COSMOS 2251 DEB,1993-036LQ,2025-04-02T07:01:25.778208,14.63072490,.0053826,74.0110,76.0915,290.6518,68.8882,0,U,34270,999,85372,.17956E-2,.9395E-4,0
COSMOS 2251 DEB,1993-036LR,2025-04-02T02:28:06.415392,14.63992559,.0023092,74.0263,331.1637,102.5171,58.2073,0,U,34271,999,84500,.26509E-2,.13943E-3,0
COSMOS 2251 DEB,1993-036LT,2025-04-02T14:04:54.149376,14.58609918,.0015947,74.0375,212.2514,32.5955,338.9819,0,U,34273,999,84913,.19947E-2,.9287E-4,0
COSMOS 2251 DEB,1993-036LU,2025-04-02T13:29:14.191584,14.61347148,.0024298,74.0069,196.7847,39.1704,332.2071,0,U,34274,999,84959,.22389E-2,.11101E-3,0
COSMOS 2251 DEB,1993-036LV,2025-04-02T10:47:30.367392,15.24229660,.0020537,74.0040,161.3977,316.6956,43.2628,0,U,34275,999,85090,.10744E-1,.273387E-2,0
COSMOS 2251 DEB,1993-036LW,2025-04-02T08:54:31.053600,14.55294789,.0023023,74.0251,208.1153,51.2449,4.9222,0,U,34276,999,84890,.13997E-2,.6064E-4,0
COSMOS 2251 DEB,1993-036MT,2025-04-02T14:19:28.444800,14.36374699,.0017373,74.0502,30.8055,171.0150,2.4331,0,U,34297,999,84444,.27077E-3,.768E-5,0
COSMOS 2251 DEB,1993-036MV,2025-04-02T13:04:55.973856,15.04212564,.0102043,74.0029,150.8420,307.7786,51.4192,0,U,34299,999,85142,.42687E-2,.67136E-3,0
COSMOS 2251 DEB,1993-036MW,2025-04-02T14:42:55.059264,15.35662559,.0047538,73.9850,183.4301,338.9482,20.9765,0,U,34300,999,85051,.10511E-1,.397358E-2,0
COSMOS 2251 DEB,1993-036MX,2025-04-02T08:02:18.351168,14.73358751,.0018112,74.0109,307.2550,92.9370,80.3729,0,U,34301,999,84641,.40745E-2,.26532E-3,0
COSMOS 2251 DEB,1993-036MY,2025-04-02T12:33:17.834976,14.37769147,.0079749,74.1805,228.1457,154.7551,325.2645,0,U,34302,999,84065,.26561E-2,.8281E-4,0
COSMOS 2251 DEB,1993-036MZ,2025-04-02T05:28:42.154752,14.50636116,.0149274,74.0085,48.9426,248.4891,176.2235,0,U,34303,999,84267,.21161E-2,.9573E-4,0
COSMOS 2251 DEB,1993-036NA,2025-04-02T10:41:24.295776,14.35418636,.0134108,74.0148,230.5983,68.3302,359.0750,0,U,34304,999,83645,.23603E-2,.7489E-4,0
COSMOS 2251 DEB,1993-036ND,2025-04-01T11:43:46.969248,13.53648870,.0395696,74.0567,2.4678,248.4495,290.4586,0,U,34307,999,79407,.85361E-3,.923E-5,0
COSMOS 2251 DEB,1993-036NK,2025-04-02T11:13:41.768256,14.92100194,.0033856,73.9858,106.2745,306.3172,53.4885,0,U,34313,999,85245,.52765E-2,.54611E-3,0
COSMOS 2251 DEB,1993-036NL,2025-04-02T06:47:36.999168,14.16685765,.0107159,74.0076,42.1775,207.3864,304.4421,0,U,34314,999,83053,.97382E-3,.2033E-4,0
COSMOS 2251 DEB,1993-036NN,2025-04-02T11:49:56.375904,14.82224817,.0018142,74.0661,122.0527,297.4979,62.4354,0,U,34316,999,85431,.34808E-2,.27931E-3,0
COSMOS 2251 DEB,1993-036NP,2025-04-02T11:42:31.103136,13.64733427,.0336502,73.9218,94.1867,132.3835,26.8696,0,U,34317,999,80150,.91393E-3,.1062E-4,0
COSMOS 2251 DEB,1993-036NT,2025-04-02T15:15:41.662368,14.48768553,.0015668,74.0285,273.2494,106.9412,323.2776,0,U,34321,999,84805,.11458E-2,.4306E-4,0
COSMOS 2251 DEB,1993-036NV,2025-04-02T12:27:42.568416,14.67337207,.0069082,73.9562,258.8085,5.0540,50.5989,0,U,34323,999,84703,.3333E-2,.19531E-3,0
COSMOS 2251 DEB,1993-036NX,2025-04-02T13:53:40.060032,14.02997882,.0194809,73.8711,280.0551,346.5707,68.7848,0,U,34325,999,81949,.1622E-2,.2952E-4,0
COSMOS 2251 DEB,1993-036NZ,2025-04-02T01:57:19.656000,14.82245432,.004094,73.9986,319.1179,197.7358,290.6124,0,U,34327,999,85726,.15423E-2,.12479E-3,0
COSMOS 2251 DEB,1993-036PN,2025-04-02T12:26:19.348800,13.78738448,.0294915,74.0786,12.3415,179.7329,353.9841,0,U,34340,999,80763,.10918E-2,.1513E-4,0
COSMOS 2251 DEB,1993-036PQ,2025-04-01T23:55:47.071776,15.32461476,.001836,74.1561,308.9043,328.0952,31.9139,0,U,34342,999,86221,.36875E-2,.117997E-2,0
COSMOS 2251 DEB,1993-036PR,2025-04-02T08:14:10.417632,14.64741708,.0022119,74.0225,220.8650,203.1027,179.3035,0,U,34343,999,85000,.32535E-2,.17412E-3,0
COSMOS 2251 DEB,1993-036PS,2025-04-02T11:12:21.195936,14.14346914,.0158498,73.9791,203.3977,82.7950,36.2027,0,U,34344,999,82499,.28169E-2,.6058E-4,0
COSMOS 2251 DEB,1993-036PU,2025-04-02T06:43:14.349216,13.98457727,.0213295,73.9982,33.3158,266.4791,219.9455,0,U,34346,999,81851,.19112E-2,.3297E-4,0
COSMOS 2251 DEB,1993-036PY,2025-04-02T11:13:39.349056,14.90089165,.0015895,74.0256,93.1844,285.5214,230.1024,0,U,34383,999,85306,.43518E-2,.4239E-3,0
COSMOS 2251 DEB,1993-036QC,2025-04-01T01:31:15.320928,14.43081731,.0038862,74.0429,326.8309,129.9183,351.6865,0,U,34387,999,84492,.54219E-3,.1809E-4,0
COSMOS 2251 DEB,1993-036QD,2025-04-02T10:45:32.089248,14.47688526,.0013452,74.0419,339.3488,100.3984,73.0672,0,U,34388,999,84473,.12126E-2,.4455E-4,0
COSMOS 2251 DEB,1993-036QE,2025-04-01T23:13:11.157600,14.40717341,.0030657,74.0225,1.9062,180.0159,306.6775,0,U,34389,999,84342,.64028E-3,.2032E-4,0
COSMOS 2251 DEB,1993-036QF,2025-04-02T07:55:53.760576,15.06276261,.0025501,74.0767,67.5412,130.9144,355.6146,0,U,34390,999,85456,.57555E-2,.8614E-3,0
COSMOS 2251 DEB,1993-036QM,2025-04-02T13:00:16.598592,14.67693888,.0009261,74.0317,257.6031,26.9853,33.6262,0,U,34396,999,84609,.40165E-2,.22926E-3,0
COSMOS 2251 DEB,1993-036QR,2025-04-02T07:23:35.698848,15.08892493,.0032202,73.9891,201.6714,48.6153,311.7799,0,U,34400,999,86099,.43746E-2,.70449E-3,0
COSMOS 2251 DEB,1993-036QS,2025-04-02T06:57:53.122752,15.37902156,.0027958,74.0214,55.3631,195.1500,164.8872,0,U,34401,999,85595,.90925E-2,.359413E-2,0
COSMOS 2251 DEB,1993-036RA,2025-04-02T08:47:18.625056,14.57402941,.008226,74.0622,69.6842,212.0807,299.6012,0,U,34409,999,85486,.35637E-3,.1662E-4,0
COSMOS 2251 DEB,1993-036RB,2025-04-02T00:23:09.250656,14.99510375,.0038284,73.7527,74.8722,315.7446,101.1467,0,U,34410,999,85935,.33345E-2,.4179E-3,0
COSMOS 2251 DEB,1993-036RD,2025-04-02T08:57:21.783456,14.44219933,.0200404,73.9486,81.7465,234.6098,123.6196,0,U,34412,999,83975,.18093E-2,.7919E-4,0
COSMOS 2251 DEB,1993-036RE,2025-04-02T02:39:54.255168,14.27054252,.0095708,74.0338,6.4994,146.5695,280.1957,0,U,34413,999,83496,.18247E-2,.4643E-4,0
COSMOS 2251 DEB,1993-036RM,2025-04-02T13:02:18.343104,14.67548260,.0106362,74.0337,235.3155,60.6960,57.7595,0,U,34420,999,86040,.37993E-3,.2314E-4,0
COSMOS 2251 DEB,1993-036RS,2025-04-02T14:41:48.748128,14.59947157,.0028279,74.0231,180.6941,3.9278,356.2104,0,U,34425,999,85029,.98963E-3,.4743E-4,0
